STARLINK-30861          
1 58230U 23171A   24063.83815880  .00003842  00000+0  29925-3 0  9994
2 58230  42.9974 324.4685 0001413 274.4080  85.6601 15.02544760 19034
STARLINK-30867          
1 58231U 23171B   24063.77502046 -.00002565  00000+0 -17492-3 0  9994
2 58231  43.0005 324.8502 0001575 263.7389  96.3274 15.02526969 19021
STARLINK-30880          
1 58232U 23171C   24063.77834354  .00000023  00000+0  16759-4 0  9996
2 58232  42.9989 324.8756 0001240 267.8587  92.2113 15.02531901 19025
STARLINK-30777          
1 58233U 23171D   24063.85147687  .00015681  00000+0  11736-2 0  9996
2 58233  42.9995 324.5635 0001392 259.8506 100.2179 15.02525789 19036
STARLINK-30860          
1 58234U 23171E   24063.71519627 -.00001688  00000+0 -10995-3 0  9990
2 58234  43.0025 325.2567 0002717 263.3217  96.7316 15.02517180 19012
STARLINK-30879          
1 58235U 23171F   24063.76834864  .00005148  00000+0  39578-3 0  9990
2 58235  42.9988 324.7866 0000390 297.2384  62.8419 15.02542813 19021
STARLINK-30853          
1 58236U 23171G   24063.45594004  .00000409  00000+0  45334-4 0  9999
2 58236  43.0029 326.7513 0000983 274.7805  85.2925 15.02534936 18978
STARLINK-30866          
1 58237U 23171H   24063.42596283  .00002170  00000+0  17560-3 0  9994
2 58237  43.0023 326.5210 0002518 259.8289 100.2270 15.02546555 18972
STARLINK-30817          
1 58238U 23171J   24063.45925871 -.00000257  00000+0 -39222-5 0  9994
2 58238  43.0020 326.7723 0001315 274.6566  85.4127 15.02534240 18971
STARLINK-30847          
1 58239U 23171K   24063.72852358  .00005557  00000+0  42608-3 0  9990
2 58239  42.9979 325.3551 0000658 254.2175 105.8595 15.02537040 19019
STARLINK-30848          
1 58240U 23171L   24063.14486920  .00004620  00000+0  35671-3 0  9998
2 58240  43.0019 329.5510 0001279 259.7787 100.2911 15.02551061 18938
STARLINK-30843          
1 58241U 23171M   24063.73183594 -.00001669  00000+0 -10854-3 0  9993
2 58241  43.0007 325.3621 0001673 249.8481 110.2182 15.02534404 19037
STARLINK-30877          
1 58242U 23171N   24063.76169236  .00028097  00000+0  20873-2 0  9997
2 58242  43.0014 324.7409 0000519 279.9423  80.1361 15.02525240 19022
STARLINK-30864          
1 58243U 23171P   24063.73838008  .00010380  00000+0  78237-3 0  9999
2 58243  42.9998 324.5732 0001510 257.3566 102.7107 15.02533118 18929
STARLINK-30854          
1 58244U 23171Q   24063.78202666 -.00002113  00000+0 -14142-3 0  9992
2 58244  43.0004 326.5930 0001172 263.4701  96.6007 15.02530742 19005
STARLINK-30849          
1 58245U 23171R   24063.80819520  .00000409  00000+0  45364-4 0  9994
2 58245  42.9988 324.2398 0001054 282.7642  77.3082 15.02533981 19035
STARLINK-30886          
1 58246U 23171S   24063.41598030 -.00000231  00000+0 -20442-5 0  9998
2 58246  43.0023 326.4526 0001259 270.7823  89.2875 15.02542550 18976
STARLINK-30850          
1 58247U 23171T   24063.74504532  .00008699  00000+0  65791-3 0  9997
2 58247  43.0005 324.6236 0001180 254.7594 105.3118 15.02556376 19023
STARLINK-30823          
1 58248U 23171U   24063.75171337  .00008115  00000+0  61499-3 0  9996
2 58248  43.0018 324.6688 0001317 275.5798  84.4894 15.02544595 19026
STARLINK-30873          
1 58249U 23171V   24063.42264495  .00021031  00000+0  15671-2 0  9991
2 58249  43.0009 326.5008 0001164 260.7745  99.2966 15.02539074 18975
STARLINK-30808          
1 58250U 23171W   24063.78424855  .00001568  00000+0  13114-3 0  9994
2 58250  43.0015 326.5928 0001530 271.3812  88.6855 15.02530035 19007
STARLINK-30881          
1 58251U 23171X   24063.13685868  .00000665  00000+0  64269-4 0  9992
2 58251  43.0084 328.5637 0000692 273.8241  86.2522 15.02536969 18921
STARLINK-30883          
1 58252U 23171Y   24063.76501697  .00011187  00000+0  84166-3 0  9997
2 58252  42.9987 324.7589 0001465 246.8863 113.1825 15.02545450 19028
STARLINK-30901          
1 58351U 23177A   24063.91667824 -.00491919  00000+0 -21224-2 0  9997
2 58351  42.9951 339.1047 0001378 212.3426 149.3884 15.85178154  6042
STARLINK-30907          
1 58352U 23177B   24063.20338675  .00002849  00000+0  22594-3 0  9999
2 58352  43.0057  33.9096 0000767 260.7901  99.2854 15.02530187 17512
STARLINK-30896          
1 58353U 23177C   24063.26763701  .00003418  00000+0  26798-3 0  9991
2 58353  43.0026  33.5424 0000949 195.7119 164.3694 15.02534609 17373
STARLINK-30832          
1 58354U 23177D   24063.28749658  .00006856  00000+0  52196-3 0  9999
2 58354  42.9977  32.8273 0001373 267.4700  92.5985 15.02544233 17397
STARLINK-30903          
1 58355U 23177E   24063.20006135  .00000764  00000+0  71638-4 0  9993
2 58355  42.9976  33.8955 0000993 272.6055  87.4674 15.02530301 17426
STARLINK-30905          
1 58356U 23177F   24063.91910807  .00024363  00000+0  18171-2 0  9994
2 58356  43.0043  29.8001 0000212 302.2911  57.7911 15.02435740 17476
STARLINK-30842          
1 58357U 23177G   24063.90039225 -.00018740  00000+0 -13513-2 0  9999
2 58357  43.0021  15.8772 0002430 270.8061  89.2503 15.03210098 17692
STARLINK-30858          
1 58358U 23177H   24063.32634597  .00004461  00000+0  34499-3 0  9999
2 58358  43.0011  33.1224 0000729 246.1443 113.9322 15.02542952 17450
STARLINK-30878          
1 58359U 23177J   24063.88026034  .00002082  00000+0  16912-3 0  9999
2 58359  42.9985  29.5346 0000662  76.7093 283.3823 15.02537715 17535
STARLINK-30897          
1 58360U 23177K   24063.32967259 -.00000298  00000+0 -70155-5 0  9993
2 58360  43.0029  33.1421 0001040 251.4661 108.6069 15.02543959 17445
STARLINK-30885          
1 58361U 23177L   24063.91798948  .00000358  00000+0  41602-4 0  9995
2 58361  43.0010  29.8193 0001047 264.6583  95.4139 15.02536734 17545
STARLINK-30890          
1 58362U 23177M   24063.91465250  .00000940  00000+0  84565-4 0  9995
2 58362  42.9988  29.7988 0000316 306.7096  53.3717 15.02550340 17481
STARLINK-30909          
1 58363U 23177N   24063.31524635  .00002297  00000+0  18505-3 0  9990
2 58363  42.9991  33.0371 0000868 276.4884  83.5860 15.02541180 17442
STARLINK-30904          
1 58364U 23177P   24063.21762505  .00030601  00000+0  19535-2 0  9993
2 58364  43.0016  32.3178 0003485 206.3875 153.6793 15.08134730 17449
STARLINK-30918          
1 58365U 23177Q   24063.90466072  .00086629  00000+0  63436-2 0  9990
2 58365  43.0022  29.7202 0001415 230.5574 129.5143 15.02568200 17539
STARLINK-30892          
1 58366U 23177R   24063.90800009  .00002645  00000+0  21077-3 0  9995
2 58366  43.0020  29.7445 0001065 271.3154  88.7566 15.02542049 17544
STARLINK-30891          
1 58367U 23177S   24063.30303713  .00000993  00000+0  88563-4 0  9998
2 58367  42.9990  32.9427 0000389 249.5819 110.4982 15.02542098 17389
STARLINK-30889          
1 58368U 23177T   24063.90355259  .00002351  00000+0  18904-3 0  9998
2 58368  42.9988  29.7093 0000758 214.4263 145.6530 15.02541614 17533
STARLINK-30870          
1 58369U 23177U   24063.30081395  .00002329  00000+0  18736-3 0  9998
2 58369  42.9986  32.9251 0000549 214.5929 145.4878 15.02542834 17440
STARLINK-30888          
1 58370U 23177V   24063.27207311  .00002485  00000+0  19891-3 0  9990
2 58370  43.0024  33.5550 0001181 257.3398 102.7312 15.02544282 17442
STARLINK-30859          
1 58371U 23177W   24063.39503434  .00021536  00000+0  16035-2 0  9993
2 58371  43.0012  32.7418 0001057 253.6808 106.3918 15.02556772 17462
STARLINK-30884          
1 58372U 23177X   24063.29526423  .00020604  00000+0  15352-2 0  9992
2 58372  43.0003  32.8851 0000658 288.5600  71.5171 15.02552132 17446
STARLINK-30852          
1 58373U 23177Y   24063.19227312  .00002100  00000+0  17045-3 0  9990
2 58373  43.0007  33.7990 0001182 258.0941 101.9768 15.02540005 17422
STARLINK-30911          
1 58374U 23178A   24063.70431921  .00044008  00000+0  20953-2 0  9996
2 58374  53.0718 180.3814 0001407  95.3420 264.7735 15.18741395 17201
STARLINK-30894          
1 58375U 23178B   24063.63755983  .00000083  00000+0  19089-4 0  9991
2 58375  53.0748 180.6723 0001359  82.2294 277.8854 15.18735045 17120
STARLINK-30910          
1 58376U 23178C   24063.63343425  .00002387  00000+0  12868-3 0  9992
2 58376  53.0734 180.6474 0001662  95.7278 264.3906 15.18729324 17196
STARLINK-30914          
1 58377U 23178D   24063.69830365  .00003748  00000+0  19333-3 0  9999
2 58377  53.0721 180.3449 0001299 107.9794 252.1342 15.18729814 17202
STARLINK-30920          
1 58378U 23178E   24063.69418539  .00029497  00000+0  14125-2 0  9997
2 58378  53.0729 180.3205 0002273 133.1060 227.0125 15.18732663 17207
STARLINK-30882          
1 58379U 23178F   24063.75903090  .00006297  00000+0  31430-3 0  9998
2 58379  53.0727 180.0095 0001422 128.5094 231.6029 15.18743780 17217
STARLINK-30915          
1 58380U 23178G   24063.62735114  .00040839  00000+0  27162-3 0  9993
2 58380  53.0438 144.5341 0001555  64.3575 295.7604 15.75037466 17697
STARLINK-30923          
1 58381U 23178H   24063.73971806  .00027564  00000+0  13211-2 0  9995
2 58381  53.0709 179.8876 0001936 107.1496 252.9710 15.18738470 17147
STARLINK-30927          
1 58382U 23178J   24063.58689034  .00000950  00000+0  60345-4 0  9990
2 58382  53.0771 180.3548 0001329 106.1375 253.9766 15.18704678 17179
STARLINK-30921          
1 58383U 23178K   24063.61822473 -.00003515  00000+0 -15219-3 0  9992
2 58383  53.0750 180.5576 0001718 113.5565 246.5610 15.18717771 17179
STARLINK-30825          
1 58384U 23178L   24063.61730112 -.00004070  00000+0 -17874-3 0  9997
2 58384  53.0748 180.5529 0001155 110.3924 249.7194 15.18703782 17195
STARLINK-30930          
1 58385U 23178M   24063.54736348  .00009996  00000+0  49020-3 0  9995
2 58385  53.0768 180.8293 0002106 107.0292 253.0933 15.18716497 17058
STARLINK-30929          
1 58386U 23178N   24063.58190725 -.00008704  00000+0 -39968-3 0  9991
2 58386  53.0740 178.1420 0001765  96.2288 263.8908 15.18705208 17201
